X,Y,OBJECTID,Building_Code,School_Name,Type,Authorized_Grades,District,Charter_Authorizer,ESP_2013_2014,Street_Address,School_Type,Zip,Alternative_Flag,School_Label,SkillmanArea,SkillmanAreaAlt,TotalStudentsFall2013,SchoolType2,TotalStudentMiles,AvgStudentMiles
-83.076278404998092,42.320905813645638,1,08046,Casa Richard Academy,HS,"9,10,11,12",Casa Richard Academy,Wayne RESA,Dynamic HR,2635 Howard St,Charter,48216,,Casa Richard Academy,Southwest Detroit Neighborhoods,Southwest,65,Charter,404.271066,6.219555
-83.059387651896685,42.338383091211497,2,00554,Cass Technical High School,HS,"9,10,11,12",Detroit City School District,,,2501 2nd Ave,DPS,48201,,Cass Technical High School,,,2334,Detroit City District,20354.768549,8.720981
-83.111486878885898,42.383759439812728,3,00617,Central Collegiate Academy,HS,"9,10,11,12",Education Achievement System-EAS,,,2425 Tuxedo St,EAA,48206,,Central Collegiate Academy,Northend Central,Northend Central,440,EAA,1215.975949,2.763582
-83.114166853047536,42.312128427320459,4,09153,Cesar Chavez High School,HS,"9,10,11,12",Cesar Chavez Academy,Saginaw Valley State University,Leona Group,1761 Waterman St,Charter,48209,,Cesar Chavez High School,Southwest Detroit Neighborhoods,Southwest,725,Charter,1724.258883,2.378288
-83.220817488848823,42.360368064687648,5,00026,Cody Academy of Public Leadership,HS,"9,10,11,12",Detroit City School District,,,18445 Cathedral St,DPS Self-Governing,48228,,Cody Academy of Public Leadership,Cody Rouge,Cody Rouge,441,Detroit City District,1666.09429,3.777992
-83.206050620414317,42.398301475122153,6,07654,Communication and Media Arts HS,HS,"9,10,11,12",Detroit City School District,,,14771 Mansfield St,DPS,48227,,Communication and Media Arts HS,,,661,Detroit City District,2374.009614,3.591543
-83.263273019469366,42.436328261355719,7,01214,Cornerstone Health School,HS,"9,10,11,12",Cornerstone Health School,Grand Valley State University,Cornerstone Charter Schools,19900 Mcintyre St,Charter,48219,,Cornerstone Health School,,,132,Charter,535.251,4.054932
-82.952790980711725,42.370830640823215,8,00029,Davis Aerospace High School,HS,"9,10,11,12",Detroit City School District,,,10200 Erwin St,DPS,48234,,Davis Aerospace High School,,,203,Detroit City District,1366.532356,6.731686
-82.960372271979509,42.424762991864206,9,00902,Denby High School,HS,"9,10,11,12",Education Achievement System-EAS,,,12800 Kelly Rd,EAA,48224,,Denby High School,,,697,EAA,1274.888439,1.829108
-83.247419444783503,42.380180131091514,10,08456,Detroit Community Schools-High School,HS,"9,10,11,12",Detroit Community Schools,Saginaw Valley State University,Self-managed,12675 Burt Rd,Charter,48223,,Detroit Community Schools - High School,Brightmoor,Brightmoor,579,Charter,1882.415059,3.251149
-83.220817488848823,42.360368064687648,11,00022,Detroit Institute of Technology at Cody,HS,"9,10,11,12",Detroit City School District,,,18445 Cathedral St,DPS Self-Governing,48228,,Detroit Institute of Technology at Cody,Cody Rouge,Cody Rouge,404,Detroit City District,1492.353212,3.693944
-83.080595157282701,42.382563342804211,12,00039,Detroit International Academy for Young Women,K12,"9,10,11,12",Detroit City School District,,,9026 Woodward Ave,DPS,48202,,Detroit International Academy for Young Women,Northend Central,Northend Central,520,Detroit City District,2553.801588,4.911157
-83.067285181959505,42.325213567067046,13,02015,Detroit Public Safety Academy,HS,"9,10,11,12",,Eastern Michigan University,Leona Group,1250 Rosa Parks Blvd,Charter,48216,,Detroit Public Safety Academy,,,56,Charter,423.417431,7.561026
-83.061590991330121,42.348491472759498,14,07794,Detroit School of Arts,HS,"9,10,11,12",Detroit City School District,,,123 Selden St,DPS Self-Governing,48201,,Detroit School of Arts,,,567,Detroit City District,4664.517,8.226661
-83.084307873222201,42.35021817032721,15,07135,Douglass Academy for Young Men,HS,"6,7,8,9,10,11,12",Detroit City School District,,,2001 West Warren Ave,DPS,48208,,Douglass Academy for Young Men,,,288,Detroit City District,1872.094945,6.50033
-83.051645969438709,42.350664386119398,16,00865,Dr. Benjamin Carson School for Science and Medicine,HS,"9,10",Detroit City School District,,,571 Mack Avenue,DPS Self-Governing,48201,,Dr. Benjamin Carson School for Science and Medicine,,,378,Detroit City District,2819.887531,7.46002
-82.929681224788126,42.406646503592469,17,01189,East English Village Preparatory Academy,HS,"9,10,11,12",Detroit City School District,,,17200 Southampton St,DPS,48224,,East English Village Preparatory Academy,,,1785,Detroit City District,5754.807934,3.223982
-83.237356033166236,42.439445464307099,18,01634,Ford High School,HS,"9,10,11,12",Education Achievement System-EAS,,,20000 Evergreen Rd,EAA,48219,,Ford High School,,,498,EAA,1724.682736,3.463218
-83.119840096621459,42.332681385963454,19,09156,George Crockett Consortium High School,HS,"9,10,11,12",George Crockett Academy,Ferris State University,Leona Group,4366 Military,Charter,48210,,George Crockett Consortium High School,Chadsey/Condon,Chadsey/Condon,28,Charter,124.34374,4.440848
-83.07478553368658,42.368021303270297,20,00101,Henry Ford Academy: School for Creative Studies (PSAD),HS,"6,7, 8,9,10,11,12",Henry Ford Academy: School for Creative Studies (PSAD),Grand Valley State University,"Creative Urban Education, Inc.",435 W Milwaukee St # 485,Charter,48202,,Henry Ford Academy: School for Creative Studies,Northend Central,Northend Central,774,Charter,4942.607284,6.394059
-83.194719163035998,42.4418916226562,21,00758,Jalen Rose Leadership Academy,HS,"9,10",Jalen Rose Leadership Academy,Central Michigan University,Operation Graduation,15000 Trojan Street,Charter,48235,,Jalen Rose Leadership Academy,,,303,Charter,1493.217953,4.928112
-83.015942873335192,42.343919471255674,22,01043,King High School,HS,"9,10,11,12",Detroit City School District,,,3200 East Lafayette St,DPS,48207,,King High School,,,1677,Detroit City District,10523.091051,6.27495
-83.220817488848823,42.360368064687648,23,00018,Medicine and Community Health Academy at Cody,HS,"9,10,11,12",Detroit City School District,,,18445 Cathedral St,DPS Self-Governing,48228,,Medicine and Community Health Academy at Cody,Cody Rouge,Cody Rouge,534,Detroit City District,1905.194781,3.56778
-83.160624370605149,42.420491202629783,24,02644,Mumford High School,HS,"9,10,11,12",Education Achievement System-EAS,,,17525 Wyoming St,EAA,48221,,Mumford High School,,,829,EAA,2087.566432,2.518174
-83.102979287774716,42.358182717478464,25,02778,Northwestern High School,HS,"9,10,11,12",Detroit City School District,,,2200 W Grand Blvd,DPS,48208,,Northwestern High School,Northend Central,Northend Central,760,Detroit City District,3105.966458,4.086798
-83.04301099624503,42.389212782107066,26,09830,Oakland International Academy-Middle/High,HS,"6,7,8,9,10,11,12",Oakland International Academy,Saginaw Valley State University,"Education Management and Networks, Inc.",8228 Conant St,Charter,48211,,Oakland International Academy - Middle/High,,,260,Charter,417.154508,1.60444
-83.217687851873293,42.418392333119577,27,09481,Old Redford Academy - High,HS,"9,10,11,12",Old Redford Academy,Central Michigan University,Innovative Teaching Solutions,8001 West Outer Dr,Charter,48235,,Old Redford Academy - High School,,,909,Charter,2816.540722,3.098505
-83.004618931237744,42.43436775118154,28,00032,Osborn Academy of Mathematics,HS,"9,10,11,12",Detroit City School District,,,11600 East 7 Mile Rd,DPS Self-Governing,48205,,Osborn Academy of Mathematics,Osborn,Osborn,366,Detroit City District,944.202963,2.57979
-83.004618931237744,42.43436775118154,29,00030,Osborn College Preparatory Academy,HS,"9,10,11,12",Detroit City School District,,,11600 East 7 Mile Rd,DPS Self-Governing,48205,,Osborn College Preparatory Academy,Osborn,Osborn,320,Detroit City District,866.902254,2.70907
-83.004618931237744,42.43436775118154,30,00035,Osborn Evergreen Academy of Design and Alternative,HS,"9,10,11,12",Detroit City School District,,,11600 East 7 Mile Rd,DPS Self-Governing,48205,,Osborn Evergreen Academy of Design and Alternative Energy,Osborn,Osborn,307,Detroit City District,750.684134,2.445225
-83.063146825985655,42.432065483573254,31,03015,Pershing High School,HS,"9,10,11,12",Education Achievement System-EAS,,,18875 Ryan Rd,EAA,48234,,Pershing High School,,,463,EAA,1129.505024,2.439536
-83.07441681123278,42.371052019451611,32,09946,Plymouth Educational Center Preparatory High School,HS,"9,10,11,12",Plymouth Educational Center Charter School,Central Michigan University,Advanced Educational Services,7375 Woodward Ave,Charter,48202,,Plymouth Educational Center Preparatory High School,Northend Central,Northend Central,375,Charter,2260.610235,6.028294
-83.191022945735767,42.419300649013451,33,06971,Renaissance High School,HS,"9,10,11,12",Detroit City School District,,,6565 West Outer Dr,DPS,48235,,Renaissance High School,,,1187,Detroit City District,5863.843404,4.940053
-82.978772402650819,42.373429680232192,34,03540,Southeastern High School,HS,"9,10,11,12",Education Achievement System-EAS,,,3030 Fairview St,EAA,48214,,Southeastern High School,,,374,EAA,1042.567426,2.787613
-83.073057352524984,42.362592843807292,35,09889,University Preparatory Academy (PSAD)-High School,HS,"9,10,11,12",University Preparatory Academy (PSAD),Grand Valley State University,Detroit 90/90,600 Antoinette St,Charter,48202,,University Preparatory Academy - High School,Northend Central,Northend Central,643,Charter,4485.913449,6.976537
-83.020321090289926,42.337447798141064,36,00506,University Preparatory Science and Math (PSAD) High,HS,"9,10,11,12",University Preparatory Science and Math (PSAD),Grand Valley State University,Detroit 90/90,2664 Franklin Street,Charter,48207,,University Preparatory Science and Math High School,,,501,Charter,4682.426207,9.34616
-83.191219315735523,42.423378025665968,37,00378,University Yes Academy,K12,"6,7,8,9,10,11,12",University Yes Academy,Bay Mills Community College,Detroit 90/90,14717 Curtis Street,Charter,48235,,University Yes Academy,,,704,Charter,1991.975852,2.829511
-83.268012447511765,42.430203877082349,38,03703,Ludington Magnet Middle School,K8,"5,6,7,8",Detroit City School District,,,19051 Berg Road,DPS,48219,,Ludington Magnet Middle School,,,482,Detroit City District,1500.759003,3.113608
-83.159868934865742,42.366073216476551,39,00853,MacKenzie Elementary-Middle School,K8,"KG,1,2,3,4,5,6,7,8",Detroit City School District,,,10147 West Chicago,DPS,48204,,MacKenzie Elementary-Middle School,,,1044,Detroit City District,1965.369349,1.882538
-83.263273019469366,42.436328261355719,40,01309,Madison-Carver Academy,K8,"KG,1,2,3,4,5,6,7,8",Madison-Carver Academy,Grand Valley State University,Cornerstone Charter Schools,19900 Mcintyre St,Charter,48219,,Madison-Carver Academy,,,296,Charter,1295.115586,4.37539
-83.234361283705837,42.368992563676315,41,02341,Mann Elementary School,K8,"KG,1,2,3,4,5",Detroit City School District,,,19625 Elmira St,DPS,48228,,Mann Elementary School,Cody Rouge,Cody Rouge,399,Detroit City District,534.671628,1.340029
-83.163421250178075,42.26936010790903,42,02383,Mark Twain Elementary-Middle School,K8,"KG,1,2,3,4,5,6,7,8",Detroit City School District,,,12800 Visger St,DPS,48217,,Mark Twain Elementary-Middle School,Southwest Detroit Neighborhoods,Southwest,270,Detroit City District,512.068783,1.896551
-82.922285971869314,42.420014572769034,43,02390,Marquette Elementary-Middle School,K8,"KG,1,2,3,4,5,6,7,8",Detroit City School District,,,6145 Canyon St,DPS,48236,,Marquette Elementary-Middle School,,,894,Detroit City District,1568.935106,1.754961
-83.171372752961602,42.414579208460331,44,07425,"Martin Luther King, Jr. Education Center Academy",K8,"KG,KG-Part,1,2,3,4,5,6,7,8","Martin Luther King, Jr. Education Center Academy",Detroit City School District,Self-managed,16827 Appoline St,DPS Charter,48235,,"Martin Luther King, Jr. Education Center Academy",,,284,Charter,972.729338,3.425103
-82.948240413608644,42.413404553337223,45,09705,Marvin L. Winans Academy of Performing Arts Elementary,K8,"KG-Part,1,2,3,4,5",Marvin L. Winans Academy of Performing Arts,Saginaw Valley State University,Solid Rock,9740 Mckinney St,Charter,48224,,Marvin L. Winans Academy of Performing Arts Elementary,,,681,Charter,2630.503017,3.862706
-83.151505240985827,42.409717323073949,46,01518,Mary McLeod Bethune Elementary-Middle School,K8,"KG,1,2,3,4,5,6,7,8",Education Achievement System-EAS,,,8145 Puritan Street,EAA,48238,,Mary McLeod Bethune Elementary-Middle School,,,634,EAA,767.083926,1.209912
-83.142125302857835,42.327420349796071,47,08671,Universal Academy,K12,"KG,1,2,3,4,5,6,7,8,9,10,11,12",Universal Academy,Oakland University,"Hamadeh Educational Services, Inc.",4612 Lonyo St,Charter,48210,,Universal Academy,Chadsey/Condon,Chadsey/Condon,645,Charter,836.683864,1.297184
-83.077212221024837,42.362125196083568,48,09887,University Preparatory Academy Elementary Ellen Thompson,K8,"KG-Part,1,2,3,4,5",University Preparatory Academy (PSAD),Grand Valley State University,Detroit 90/90,957 Holden St,Charter,48202,,University Preparatory Academy Elementary Ellen Thompson,Northend Central,Northend Central,414,Charter,2877.364362,6.950155
-83.073202726376792,42.36551219416242,49,09908,University Preparatory Academy Elementary Mark Murray,K8,"KG-Part,1,2,3,4,5",University Preparatory Academy (PSAD),Grand Valley State University,Detroit 90/90,435 Amsterdam St,Charter,48202,,University Preparatory Academy Elementary Mark Murray,Northend Central,Northend Central,419,Charter,3209.109017,7.658971
-83.053847834695915,42.441679238113572,50,02431,Mason Elementary School,K8,"KG,1,2,3,4,5,6,7,8",Detroit City School District,,,19955 Fenelon,DPS,48234,,Mason Elementary School,,,631,Detroit City District,1466.454036,2.324016
-83.093274114716039,42.316538553624966,51,02448,Maybury Elementary School,K8,"KG,1,2,3",Detroit City School District,,,4410 Porter St,DPS,48209,,Maybury Elementary School,Southwest Detroit Neighborhoods,Southwest,332,Detroit City District,411.279214,1.238793
-83.206176528143416,42.438132454931264,52,09099,Michigan Technical Academy Elementary,K8,"KG,1,2,3,4",Michigan Technical Academy,Central Michigan University,Midwest Management Group Inc.,19940 Mansfield St,Charter,48235,,Michigan Technical Academy Elementary,,,617,Charter,2143.578503,3.474195
-83.132619466389031,42.338023358518029,53,00858,Munger Elementary-Middle School,K8,"KG,1,2,3,4,5,6,7,8",Detroit City School District,,,5525 Martin,DPS,48216,,Munger Elementary-Middle School,Chadsey/Condon,Chadsey/Condon,869,Detroit City District,1120.520361,1.289437
-83.274605959322656,42.399002944091478,54,02648,Murphy Elementary,K8,"KG,1,2,3,4,5,6,7,8",Michigan Educational Choice Center,Education Achievement System-EAS,Performance Academies,23901 Fenkell St,EAA Charter,48223,,Murphy Elementary,Brightmoor,Brightmoor,362,Charter,801.128616,2.213062
-83.261547802837839,42.430353315489363,55,08256,Nataki Talibah Schoolhouse of Detroit,K8,"KG-Part,1,2,3,4,5,6,7,8",Nataki Talibah Schoolhouse of Detroit,Central Michigan University,Nataki Talibah Schoolhouse,19176 Northrop St,Charter,48219,,Nataki Talibah Schoolhouse of Detroit,,,270,Charter,1077.170057,3.989519
-83.107116166468359,42.317146645176393,56,02669,Neinas Elementary School,K8,"KG,1,2,3,4,5",Detroit City School District,,,6021 Mcmillan St,DPS,48209,,Neinas Elementary School,Southwest Detroit Neighborhoods,Southwest,300,Detroit City District,429.369324,1.431231
-83.117205087978363,42.399285187104439,57,05675,New Paradigm Glazer Academy,K8,"KG,1,2,3,4,5,6,7,8",New Paradigm Glazer Academy,Detroit City School District,New Paradigm,2001 La Belle St,DPS Charter,48238,,New Paradigm Glazer Academy,Northend Central,Northend Central,185,Charter,276.073648,1.49229
-83.075386600252401,42.391748869494556,58,03725,New Paradigm Loving Academy,K8,"KG,1,2,3,4,5,6,7,8",New Paradigm Loving Academy,Detroit City School District,New Paradigm,1000 Lynn St,DPS Charter,48211,,New Paradigm Loving Academy,Northend Central,Northend Central,199,Charter,334.077249,1.67878
-82.997676157125866,42.36552463706488,59,02703,Nichols Elementary-Middle School,K8,"KG,1,2,3,4,5,6,7,8",Detroit City School District,,,3000 Burns St,DPS,48214,,Nichols Elementary-Middle School,,,282,Detroit City District,632.811912,2.244014
-83.155832460909465,42.381439187031951,60,06103,Noble Elementary-Middle School,K8,"KG,1,2,3,4,5,6,7,8",Detroit City School District,,,8646 Fullerton St,DPS,48238,,Noble Elementary-Middle School,,,621,Detroit City District,1284.058038,2.067726
-83.092239903883936,42.437389469802142,61,02708,Nolan Elementary-Middle School,K8,"KG,1,2,3,4,5,6,7,8",Education Achievement System-EAS,,,1150 East Lantz St,EAA,48203,,Nolan Elementary-Middle School,,,431,EAA,660.27915,1.53197
-83.040647261264354,42.391124891770836,62,09314,Oakland International Academy - Elementary,K8,"KG,1,2,3",Oakland International Academy,Saginaw Valley State University,"Education Management and Networks, Inc.",4001 Miller St,Charter,48211,,Oakland International Academy - Elementary,,,158,Charter,216.345245,1.369274
-83.039828877547279,42.390792143026346,63,08743,Oakland International Academy - Intermediate,K8,"4,5",Oakland International Academy,Saginaw Valley State University,"Education Management and Networks, Inc.",6111 Miller St,Charter,48211,,Oakland International Academy - Intermediate,,,113,Charter,174.634467,1.545438
-83.259414925382615,42.416066532614138,64,08723,Old Redford Academy - Elementary and Middle,K8,"KG,1,2,3,4,5",Old Redford Academy,Central Michigan University,Innovative Teaching Solutions,17195 Redford St,Charter,48219,,Old Redford Academy - Elementary and Middle,,,833,Charter,3181.374767,3.823768
-83.138051381167315,42.427982557549143,65,01552,Palmer Park Preparatory Academy,K8,"KG-Part,1,2,3,4,5,6,7,8",Detroit City School District,,,3901 Margareta St,DPS,48221,,Palmer Park Preparatory Academy,,,544,Detroit City District,1098.550876,2.019395
-83.143358865723627,42.438375274743905,66,02969,Pasteur Elementary School,K8,"KG,1,2,3,4,5,6",Detroit City School District,,,19811 Stoepel St,DPS,48221,,Pasteur Elementary School,,,397,Detroit City District,907.014667,2.284672
-83.121928003819377,42.307272087312754,67,04554,Phoenix Elementary-Middle School,K8,"KG,1,2,3,4,5,6,7,8",Education Achievement System-EAS,,,7735 Lane St,EAA,48209,,Phoenix Elementary-Middle School,Southwest Detroit Neighborhoods,Southwest,298,EAA,448.680589,1.50564
-83.048056191655448,42.360371519417107,68,08255,Plymouth Educational Center - K -8,K8,"KG,1,2,3,4,5,6,7,8",Plymouth Educational Center Charter School,Central Michigan University,Advanced Educational Services,1460 East Forest Ave,Charter,48207,,Plymouth Educational Center - K -8,,,806,Charter,4846.327504,6.020283
-83.143420327912253,42.336521490541699,69,03123,Priest Elementary-Middle School,K8,"KG,1,2,3,4,5,6,7,8",Detroit City School District,,,7840 Wagner St,DPS,48210,,Priest Elementary-Middle School,Chadsey/Condon,Chadsey/Condon,809,Detroit City District,764.852594,0.94543
-82.999395350337991,42.441118214103902,70,03130,Pulaski Elementary-Middle School,K8,"KG,1,2,3,4,5,6,7,8",Detroit City School District,,,19725 Strasburg St,DPS,48205,,Pulaski Elementary-Middle School,Osborn,Osborn,537,Detroit City District,811.607234,1.511373
-82.957531897535716,42.436091005031592,71,00762,Regent Park Scholars Charter Academy,K8,"KG,1,2,3,4,5,6,7,8",Regent Park Scholars Charter Academy,Lake Superior State University,National Heritage Academies,15865 East 7 Mile Road,Charter,48205,,Regent Park Scholars Charter Academy,,,611,Charter,1349.83455,2.209222
-83.127547295157555,42.414924399904145,72,07633,"Robeson Academy, Malcolm X Academy",K8,"1,2,3,4,5,6,7,8",Detroit City School District,,,2585 Grove Street,DPS,48221,,"Robeson Academy, Malcolm X Academy",,,413,Detroit City District,1245.155289,3.014904
-83.025970317768966,42.356474008487282,73,08669,Ross-Hill Academy-Elementary,K8,"KG,1,2,3,4,5,6,7,8",Ross-Hill Academy,Detroit City School District,777 Management Company,3111 Elmwood St,DPS Charter,48207,,Ross-Hill Academy-Elementary,,,128,Charter,519.243912,4.056593
-83.209791802432861,42.422583174699732,74,02701,Rutherford Winans Academy,K8,"KG,1,2,3,4,5",Rutherford Winans Academy,Detroit City School District,Solid Rock,16411 Curtis St,DPS Charter,48235,,Rutherford Winans Academy,,,248,Charter,405.564118,1.635339
-83.118473128690553,42.353482707838033,75,04413,Sampson Academy,K8,"KG,1,2,3,4,5,6,7,8",Detroit City School District,,,4700 Tireman St,DPS,48204,,Sampson Academy,,,451,Detroit City District,833.481733,1.848075
-83.168142704152103,42.418629604950269,76,03420,Schulze Elementary-Middle School,K8,"KG,1,2,3,4,5,6,7,8",Detroit City School District,,,10700 Santa Maria St,DPS,48221,,Schulze Elementary-Middle School,,,736,Detroit City District,1376.823754,1.870684
-83.108634540849266,42.334938685011949,77,01851,Southwest Detroit Lighthouse Academy,K8,"KG,1,2,3,4,5,6,7,8",Southwest Detroit Lighthouse Charter Academy,Grand Valley State University,"Lighthouse Academies, Inc.",4001 29th Street,Charter,48210,,Southwest Detroit Lighthouse Academy,Chadsey/Condon,Chadsey/Condon,288,Charter,701.883391,2.437095
-83.05222005314279,42.349606632003919,78,03558,Spain Elementary-Middle School,K8,"KG,1,2,3,4,5,6,7,8",Detroit City School District,,,3700 Beaubien St,DPS,48201,,Spain Elementary-Middle School,,,623,Detroit City District,2420.294322,3.891148
-83.058184044056972,42.362337587777347,79,09888,University Preparatory Academy Middle School,K8,"6,7,8",University Preparatory Academy (PSAD),Grand Valley State University,Detroit 90/90,5310 Saint Antoine St,Charter,48202,,University Preparatory Academy Middle School,,,409,Charter,2927.299986,7.157213
-83.0329026107337,42.346207195667766,80,01567,University Preparatory Science and Math - Elementary,K8,"KG,1,2,3,4,5",University Preparatory Science and Math (PSAD),Grand Valley State University,Detroit 90/90,2322 Dubois St,Charter,48207,,University Preparatory Science and Math - Elementary,,,422,Charter,3045.885597,7.234883
-83.062841051340953,42.35895058917167,81,09907,University Preparatory Science and Math (PSAD) Middle,K8,"6,7,8",University Preparatory Science and Math (PSAD),Grand Valley State University,Detroit 90/90,5100 John R St,Charter,48202,,University Preparatory Science and Math (PSAD) Middle,,,476,Charter,3867.012589,8.123976
-83.18257831131244,42.438815941550217,82,04292,Vernor Elementary School,K8,"KG,1,2,3,4,5,6",Detroit City School District,,,13726 Pembroke Ave,DPS,48235,,Vernor Elementary School,,,277,Detroit City District,353.748485,1.27707
-83.119705197554978,42.332150785306247,83,08631,Voyageur Academy,K8,"KG,KG-Part,1,2,3,4",Voyageur Academy,Ferris State University,Leona Group,4321 Military,Charter,48210,,Voyageur Academy,Chadsey/Condon,Chadsey/Condon,367,Charter,1505.775597,4.114141
-83.230708551752684,42.346953623362779,84,08934,Warrendale Charter Academy,K8,"KG,1,2,3,4,5,6,7,8",Warrendale Charter Academy,Grand Valley State University,National Heritage Academies,19400 Sawyer St,Charter,48228,,Warrendale Charter Academy,Cody Rouge,Cody Rouge,701,Charter,1280.199087,1.826247
-82.955659822681426,42.415904668155441,85,04406,Wayne Elementary School,K8,"KG,1,2,3,4,5",Detroit City School District,,,10633 Courville St,DPS,48224,,Wayne Elementary School,,,313,Detroit City District,280.699346,0.896803
-83.125786103041506,42.389632013091742,86,06074,Stewart Elementary,K8,"KG,1,2,3,4,5,6,7,8",Michigan Educational Choice Center,Education Achievement System-EAS,Performance Academies,13120 Wildemere St,EAA Charter,48238,,Stewart Elementary,Northend Central,Northend Central,341,Charter,381.505083,1.125384
-83.033055496039523,42.361261848607214,87,02073,The James and Grace Lee Boggs School,K8,K-4,,Eastern Michigan University,Nataki Educational Services,535 East Kirby,Charter,48207,,The James and Grace Lee Boggs School,,,45,Charter,198.21125,4.404694
-83.096468195027057,42.366906143121689,88,04156,Thirkell Elementary School,K8,"KG,1,2,3,4,5",Detroit City School District,,,7724 14th St,DPS,48206,,Thirkell Elementary School,Northend Central,Northend Central,532,Detroit City District,1206.783637,2.26839
-83.212830028566955,42.398376867713345,89,01084,Thomas Alva Edison Elementary School,K8,"KG-Part,1,2,3,4,5",Detroit City School District,,,17045 Grand River Ave,DPS,48227,,Thomas Alva Edison Elementary School,,,311,Detroit City District,531.499085,1.709
-83.127529308346112,42.405454536988039,90,00857,Thurgood Marshall Elementary School,K8,"KG-Part,1,2,3,4,5,6",Detroit City School District,,,15531 Linwood St,DPS,48238,,Thurgood Marshall Elementary School,,,512,Detroit City District,1090.717326,2.130307
-82.986623487183508,42.380912040713937,91,08572,Timbuktu Academy of Science and Technology,K8,"KG,1,2,3,4,5,6,7,8",Timbuktu Academy of Science and Technology,Detroit City School District,Self-managed,10800 East Canfield St,DPS Charter,48214,,Timbuktu Academy of Science and Technology,,,336,Charter,741.963875,2.208226
-83.119840096621459,42.332681385963454,92,09154,Voyageur Consortium High School,HS,"9,10,11,12",Voyageur Academy,Ferris State University,Leona Group,4366 Military,Charter,48210,,Voyageur Consortium High School,Chadsey/Condon,Chadsey/Condon,817,Charter,3969.442708,4.858559
-83.230296346748148,42.364091258654604,93,01241,W-A-Y Academy - Chicago Site,HS,"7,8,9,10,11,12",W-A-Y Academy,Lake Superior State University,W-A-Y,19321 W Chicago St,Charter,48228,,W-A-Y Academy - Chicago Site,Cody Rouge,Cody Rouge,131,Charter,399.04094,3.046114
-83.132881750279708,42.308971806048191,94,01390,W-A-Y Academy - Vernor Site,HS,"9,10,11,12",W-A-Y Academy,Lake Superior State University,W-A-Y,8701 West Vernor Highway,Charter,48209,,W-A-Y Academy - Vernor Site,Southwest Detroit Neighborhoods,Southwest,425,Charter,1577.673342,3.747443
-83.092482710190922,42.319083635290376,95,04477,Western International High School,HS,"9,10,11,12",Detroit City School District,,,1500 Scotten St,DPS,48209,,Western International High School,Southwest Detroit Neighborhoods,Southwest,1632,Detroit City District,5420.646792,3.321475
-83.02504253921218,42.42665156593641,96,08455,Winans Academy High School,HS,"9,10,11,12",Marvin L. Winans Academy of Performing Arts,Saginaw Valley State University,Solid Rock,7616 East Nevada St,Charter,48234,,Winans Academy High School,Osborn,Osborn,303,Charter,1700.38249,5.611823
-83.110010503531271,42.326763845692327,97,07793,Academy of The Americas,K8,"KG,1,2,3,4,5,6,7,8",Detroit City School District,,,5680 Konkel St,DPS,48210,,Academy of The Americas,Chadsey/Condon,Chadsey/Condon,708,Detroit City District,1811.514869,2.558637
-83.158404527846969,42.441450956262585,98,08047,Aisha Shule/WEB Dubois Prep. Academy School,K8,"6,7,8,9,10,11,12",Aisha Shule/WEB Dubois Prep. Academy School,Detroit City School District,Key Concepts Educational Management Company,20119 Wisconsin St,DPS Charter,48221,,Aisha Shule/WEB Dubois Preparatory Academy School,,,124,Charter,468.811501,3.780738
-83.11976064240379,42.363632608933337,99,09319,Allen Academy,K12,"KG,1,2,3,4,5,6,7,8,9,10,11,12",Allen Academy,Ferris State University,Leona Group,8666 Quincy St,Charter,48204,,Allen Academy,,,1002,Charter,2708.089019,2.702684
-83.151586181007502,42.424367281303567,100,00168,Bagley Elementary School,K8,"KG,1,2,3,4,5,6",Detroit City School District,,,8100 Curtis St,DPS,48221,,Bagley Elementary School,,,389,Detroit City District,425.886938,1.094825
-83.162586375985114,42.437943599333252,101,02882,Bates Academy,K8,"KG,1,2,3,4,5,6,7,8",Detroit City School District,,,19701 Wyoming St,DPS,48221,,Bates Academy,,,853,Detroit City District,4492.175598,5.266325
-83.129904992594433,42.309241602352159,102,00277,Bennett Elementary School,K8,"KG,1,2,3,4,5",Detroit City School District,,,2111 Mullane St,DPS,48209,,Bennett Elementary School,Southwest Detroit Neighborhoods,Southwest,443,Detroit City District,440.927823,0.995322
-83.00599489083119,42.389356674751369,103,02058,Blackwell Institute,K8,"KG,1,2,3,4,5,6,7,8",Detroit City School District,,,9330 Shoemaker St,DPS,48213,,Blackwell Institute,,,425,Detroit City District,978.208967,2.301668
-83.204890497520992,42.436891391060755,104,04319,Bow Elementary-Middle School,K8,"KG,1,2,3,4,5,6,7,8",Detroit City School District,,,19801 Prevost St,DPS,48235,,Bow Elementary-Middle School,,,520,Detroit City District,950.701386,1.828272
-83.004331146848898,42.430284827825425,105,09341,Brenda Scott Elementary-Middle,K8,"KG,1,2,3,4,5,6,7,8",Education Achievement System-EAS,,,18440 Hoover St,EAA,48205,,Brenda Scott Elementary-Middle,Osborn,Osborn,736,EAA,1193.556709,1.62168
-82.96297131420188,42.428261354644832,106,09991,Brewer Elementary-Middle School,K8,"KG,1,2,3,4,5,6,7,8",Detroit City School District,,,18025 Brock St,DPS,48205,,Brewer Elementary-Middle School,,,575,Detroit City District,950.502319,1.653048
-83.062076630935977,42.407244190998249,107,00923,Bridge Academy West,K8,"6,7,8",Bridge Academy,Ferris State University,Global Educational Excellence,3105 Carpenter Road,Charter,48212,,Bridge Academy West,,,233,Charter,302.698266,1.299134
-82.948349813675435,42.40483955978349,108,04062,"Brown, Ronald Academy",K8,"KG,1,2,3,4,5,6",Detroit City School District,,,11530 East Outer Dr,DPS,48224,,Ronald Brown Academy,,,747,Detroit City District,1254.710354,1.679666
-83.02426911532919,42.343743053098947,109,00446,Bunche Elementary-Middle School,K8,"KG,1,2,3,4,5,6,7,8",Detroit City School District,,,2715 Macomb Street,DPS,48207,,Bunche Elementary-Middle School,,,513,Detroit City District,1578.873478,3.077726
-83.191426157404251,42.393034894784947,110,00456,Burns Elementary-Middle School,K8,"KG-Part,1,2,3,4,5,6,7,8",Education Achievement System-EAS,,,14350 Terry St,EAA,48227,,Burns Elementary-Middle School,,,364,EAA,450.474422,1.237567
-83.078337854748554,42.339180040559754,111,00468,Burton International School,K8,"KG,1,2,3,4,5,6,7,8",Detroit City School District,,,2001 Martin Luther King Jr. Blvd,DPS,48208,,Burton International School,,,579,Detroit City District,2923.712945,5.049591
-82.94604606879615,42.426894386147978,112,05553,Carleton Elementary School,K8,"KG,1,2,3,4,5",Detroit City School District,,,11724 Casino St,DPS,48224,,Carleton Elementary School,,,345,Detroit City District,382.979642,1.110086
-82.948051552360269,42.364247602268044,113,00542,Carstens Elementary-Middle School,K8,"KG,1,2,3,4,5,6,7,8",Detroit City School District,,,13000 Essex Avenue,DPS,48215,,Carstens Elementary-Middle School,,,529,Detroit City District,1181.388357,2.233248
-83.223515453608641,42.335627710854823,114,00546,Carver Elementary-Middle School,K8,"KG,1,2,3,4,5,6,7,8",Detroit City School District,,,18701 Paul St,DPS,48228,,Carver Elementary-Middle School,Cody Rouge,Cody Rouge,355,Detroit City District,476.987945,1.343628
-83.128716406200141,42.31092678140331,115,08347,Cesar Chavez Academy Elementary,K8,"KG,1,2",Cesar Chavez Academy,Saginaw Valley State University,Leona Group,8126 West Vernor Hwy,Charter,48209,,Cesar Chavez Academy Elementary,Southwest Detroit Neighborhoods,Southwest,474,Charter,872.106867,1.843778
-83.125615227744191,42.329143602688909,116,00173,Cesar Chavez Academy Intermediate,K8,"3,4,5",Cesar Chavez Academy,Saginaw Valley State University,Leona Group,4100 Martin St,Charter,48210,,Cesar Chavez Academy Intermediate,Chadsey/Condon,Chadsey/Condon,455,Charter,1081.7824,2.377544
-83.114983754632902,42.311493354628347,117,08569,Cesar Chavez Middle School,K8,"6,7,8",Cesar Chavez Academy,Saginaw Valley State University,Leona Group,6782 Goldsmith St,Charter,48209,,Cesar Chavez Middle School,Southwest Detroit Neighborhoods,Southwest,560,Charter,1131.64695,2.020798
-83.268075400149073,42.431516887402502,118,09125,Charles Wright School,K8,"KG,1,2,3,4",Detroit City School District,,,19299 Berg Rd,DPS,48219,,Charles Wright School,,,515,Detroit City District,1321.962843,2.566918
-83.034377498047164,42.337393837425843,119,00689,Chrysler Elementary School,K8,"KG,1,2,3,4,5",Detroit City School District,,,1445 East Lafayette St,DPS,48207,,Chrysler Elementary School,,,188,Detroit City District,1457.101131,7.791985
-83.115172611385717,42.3094698804207,120,00238,"Clemente, Roberto Academy",K8,"KG,1,2,3,4,5",Detroit City School District,,,1551 Beard St,DPS,48209,,Roberto Clemente Academy,Southwest Detroit Neighborhoods,Southwest,745,Detroit City District,862.667595,1.157943
-83.097932604253543,42.320639462485154,121,07500,Clippert Academy,K8,"5,6,7,8",Detroit City School District,,,1981 Mckinstry St,DPS,48209,,Clippert Academy,Southwest Detroit Neighborhoods,Southwest,517,Detroit City District,1141.941253,2.208784
-83.189727920439836,42.406386382425879,122,03717,Coleman A. Young Elementary,K8,"KG,1,2,3,4,5",Detroit City School District,,,15771 Hubbell St,DPS,48227,,Coleman A. Young Elementary,,,469,Detroit City District,704.683794,1.502524
-83.055448626493444,42.41620144075906,123,08656,Commonwealth Community Development Academy,K8,"KG,1,2,3,4,5,6,7,8",Commonwealth Community Devel. Academy,Eastern Michigan University,Self-managed,13477 Eureka St,Charter,48212,,Commonwealth Community Development Academy,,,217,Charter,632.860626,2.916408
-83.225997589893012,42.408751598178853,124,00781,Cooke Elementary School,K8,"KG,1,2,3,4,5,6",Detroit City School District,,,18800 Puritan St,DPS,48223,,Cooke Elementary School,,,364,Detroit City District,637.729968,1.752005
-83.180797652565801,42.43020942771566,125,08670,David Ellis Academy,K8,"KG,1,2,3,4,5,6,7,8",David Ellis Academy,Detroit City School District,Bardwell Group,18977 Schaefer Hwy,DPS Charter,48235,,David Ellis Academy,,,419,Charter,1254.996569,2.995219
-83.069137793742911,42.41206111152556,126,00880,Davison Elementary-Middle School,K8,"KG,1,2,3,4,5,6,7,8",Detroit City School District,,,2800 East Davison St,DPS,48212,,Davison Elementary-Middle School,,,698,Detroit City District,1171.049521,1.677721
-83.018380036775866,42.340556006323155,127,08489,Detroit Academy of Arts and Sciences,K8,"KG-Part,1,2,3,4,5",Detroit Academy of Arts and Sciences,Oakland University,Self-managed,2985 East Jefferson Ave,Charter,48207,,Detroit Academy of Arts and Sciences,,,698,Charter,4359.053675,6.245063
-83.018380036775866,42.340556006323155,128,08945,Detroit Academy of Arts and Sciences Middle School,K8,"6,7,8",Detroit Academy of Arts and Sciences,Oakland University,Self-managed,2985 E Jefferson Ave,Charter,48207,,Detroit Academy of Arts and Sciences Middle School,,,381,Charter,2574.835521,6.758098
-83.217839253579143,42.399006393092115,129,01968,Detroit Achievement Academy,K8,K-1,Detroit Achievement Academy,Grand Valley State University,Expeditionary Leraning,150000 Southfield,Charter,48223,,Detroit Achievement Academy,,,34,Charter,95.932958,2.821558
-83.247419444783503,42.380180131091514,130,09619,Detroit Community Schools-Elementary,K8,"KG-Part,1,2,3,4,5,6,7,8",Detroit Community Schools,Saginaw Valley State University,Self-managed,12675 Burt Rd,Charter,48223,,Detroit Community Schools-Elementary,Brightmoor,Brightmoor,421,Charter,1151.492458,2.735136
-82.972908820951716,42.369014008645564,131,09462,Detroit Enterprise Academy,K8,"KG,1,2,3,4,5,6,7,8",Detroit Enterprise Academy,Grand Valley State University,National Heritage Academies,11224 Kercheval St,Charter,48214,,Detroit Enterprise Academy,,,530,Charter,1732.71329,3.26927
-83.21817200072428,42.37211665877836,132,01170,Detroit Innovation Academy,K8,"KG,1,2,3,4,5",Detroit Innovation Academy,Central Michigan University,Y-ES,18211 Plymouth Rd,Charter,48228,,Detroit Innovation Academy,Cody Rouge,Cody Rouge,248,Charter,665.285932,2.682605
-83.270953227315118,42.384275492671598,133,00334,Detroit Leadership Academy,K8,"KG,1,2,3,4,5,6,7",Detroit Leadership Academy,Central Michigan University,Y Educational Services,13550 Virgil,Charter,48223,,Detroit Leadership Academy,Brightmoor,Brightmoor,283,Charter,965.341119,3.411099
-82.940831477296669,42.375917358610778,134,09102,Detroit Merit Charter Academy,K8,"KG,1,2,3,4,5,6,7,8",Detroit Merit Charter Academy,Grand Valley State University,National Heritage Academies,1091 Alter Rd,Charter,48215,,Detroit Merit Charter Academy,,,733,Charter,2838.464865,3.872394
-83.206419338360092,42.34873083636279,135,09600,Detroit Premier Academy,K8,"KG,1,2,3,4,5,6,7,8",Detroit Premier Academy,Grand Valley State University,National Heritage Academies,7781 Asbury Park,Charter,48228,,Detroit Premier Academy,,,724,Charter,1497.623257,2.06854
-83.256015487735851,42.42910670420121,136,08704,Detroit Service Learning Academy,K8,"KG,1,2,3,4,5,6,7,8",Detroit Service Learning Academy,Lake Superior State University,Self-managed,21605 West 7 Mile Rd,Charter,48219,,Detroit Service Learning Academy,,,1201,Charter,4045.548884,3.368484
-83.246914340675147,42.353797464528469,137,00925,Dixon Elementary School,K8,"KG,1,2,3,4,5,6,7,8",Detroit City School District,,,8401 Trinity Street,DPS,48228,,Dixon Elementary School,Cody Rouge,Cody Rouge,790,Detroit City District,1370.930201,1.735355
-83.210302930939719,42.382252021013997,138,00939,Dossin Elementary-Middle School,K8,"KG,1,2,3,4,5,6,7,8",Detroit City School District,,,16650 Glendale St,DPS,48227,,Dossin Elementary-Middle School,,,419,Detroit City District,619.172929,1.47774
-83.020743780496716,42.439520866443189,139,08501,Dove Academy of Detroit,K8,"KG-Part,1,2,3,4,5,6,7,8",Dove Academy of Detroit,Oakland University,Schoolhouse Services & Staffing,8210 Rolyat St,Charter,48234,,Dove Academy of Detroit,Osborn,Osborn,442,Charter,1190.853389,2.694238
-83.110208358720129,42.381649479302126,140,00975,Durfee Elementary-Middle School,K8,"KG,1,2,3,4,5,6,7,8",Detroit City School District,,,2470 Collingwood St,DPS,48206,,Durfee Elementary-Middle School,Northend Central,Northend Central,662,Detroit City District,1375.529791,2.07784
-83.089344075839747,42.314730915721,141,00860,Earhart Elementary-Middle School,K8,"KG,1,2,3,4,5,6,7,8",Detroit City School District,,,1000 Scotten Street,DPS,48209,,Earhart Elementary-Middle School,Southwest Detroit Neighborhoods,Southwest,813,Detroit City District,1717.735421,2.112836
-83.038100693954348,42.350919643337264,142,08651,"Edison Public School Academy / DEPSA
",K12,"KG,1,2,3,4,5,6,7,8,9,10,11",Detroit Edison Public School Academy,Oakland University,Self-managed,1903 Wilkins St,Charter,48207,,Edison Public School Academy,,,1469,Charter,11420.103641,7.784665
-82.979932531203005,42.408035598204229,143,03737,"Edward ""Duke"" Ellington Elementary-Middle School",K8,"KG,1,2,3,4,5,6,7,8",Detroit City School District,,,8030 East Outer Dr,DPS,48213,,"Edward ""Duke"" Ellington Elementary-Middle School",,,781,Detroit City District,1235.33804,1.581739
-82.96290835922521,42.398188020669544,144,09994,EMAN Hamilton Academy,K8,"KG,1,2,3,4,5,6,7,8",EMAN Hamilton Academy,Detroit City School District,"Education Management and Networks, Inc.",14223 Southampton St,Charter,48213,,EMAN Hamilton Academy,,,334,Charter,367.133821,1.099203
-83.233037803165928,42.422622592702005,145,01134,Emerson Elementary-Middle School,K8,"KG,1,2,3,4,5,6,7,8",Detroit City School District,,,18240 Huntington Rd,DPS,48219,,Emerson Elementary-Middle School,,,776,Detroit City District,1402.710211,1.807616
-83.121611761353861,42.328085849573583,146,01369,Escuela Avancemos!,K8,"KG,1,2,3,4,5,6,7,8",Escuela Avancemos,Grand Valley State University,"Sanga Consulting, Inc.",3811 Cicotte Street,Charter,48210,,Escuela Avancemos!,Chadsey/Condon,Chadsey/Condon,199,Charter,264.484958,1.32907
-83.068454303304179,42.346554482961388,147,02112,Experiencia Preparatory Academy,K8,K-12,CS Partners,Northern Michigan University,,950 Selden,Charter,48201,,Experiencia Preparatory Academy,,,350,Charter,1752.039608,5.005827
-82.960687036491393,42.44268648352849,148,09121,Fisher Magnet Lower Academy,K8,"KG,1,2,3,4,5,6,7,8",Detroit City School District,,,15510 East State Fair St,DPS,48205,,Fisher Magnet Lower Academy,,,624,Detroit City District,937.679236,1.502691
-82.960929853057408,42.436508139641951,149,09345,Fisher Magnet Upper Academy,K8,"5,6,7,8",Detroit City School District,,,15491 Maddelein Street,DPS,48205,,Fisher Magnet Upper Academy,,,617,Detroit City District,908.172352,1.471916
-83.156190708320636,42.388232515700672,150,09785,Flagship Charter Academy,K8,"KG,1,2,3,4,5,6,7,8",Flagship Charter Academy,Central Michigan University,National Heritage Academies,13661 Wisconsin Street,Charter,48238,,Flagship Charter Academy,,,679,Charter,1768.104558,2.607824
-83.190276508929841,42.419489507425617,151,07326,Foreign Language Immersion and Cultural Studies,K8,"KG,1,2,3,4,5,6,7,8",Detroit City School District,,,6501 West Outer Dr,DPS,48235,,Foreign Language Immersion and Cultural Studies,,,755,Detroit City District,3107.937535,4.116474
-83.201715882311589,42.339485804264918,152,01362,Gardner Elementary School,K8,"KG-Part,1,2,3,4,5",Detroit City School District,,,6528 Mansfield St,DPS,48228,,Gardner Elementary School,,,298,Detroit City District,330.225833,1.10814
-83.001174520633228,42.359957833174711,153,07581,Garvey Academy,K8,"KG,1,2,3,4,5,6,7,8",Detroit City School District,,,2301 Van Dyke St,DPS,48214,,Garvey Academy,,,449,Detroit City District,1190.388566,2.651199
-83.074136538543826,42.348887173605384,154,01087,GEE Edmonson Academy,K8,"KG-Part,1,2,3,4,5,6,7,8",GEE Edmonson Academy,Detroit City School District,Global Educational Excellence,1300 West Canfield St,DPS Charter,48201,,GEE Edmonson Academy,,,254,Charter,472.014691,1.858326
-83.049980745599797,42.411803755415427,155,04500,GEE White Academy,K8,"KG,1,2,3,4,5,6,7,8",GEE White Academy,Detroit City School District,Global Educational Excellence,5161 Charles St,DPS Charter,48212,,GEE White Academy,,,416,Charter,420.714868,1.011334
-83.087061282052829,42.349081577210981,156,08635,George Crockett Academy,K8,"KG,1,2,3,4,5,6,7,8",George Crockett Academy,Ferris State University,Leona Group,4851 14th Street,Charter,48208,,George Crockett Academy,,,341,Charter,1127.512572,3.306488
-83.060008185695324,42.364499407001304,157,00176,Golightly Education Center,K8,"KG-Part,1,2,3,4,5,6,7,8",Detroit City School District,,,5536 Saint Antoine St,DPS,48202,,Golightly Education Center,Northend Central,Northend Central,441,Detroit City District,1891.325318,4.28872
-83.246223347120747,42.392500845111208,158,01438,Gompers Elementary-Middle School,K8,"KG,1,2,3,4,5,6,7,8",Detroit City School District,,,14450 Burt Road,DPS,48223,,Gompers Elementary-Middle School,Brightmoor,Brightmoor,883,Detroit City District,2070.111135,2.344407
-83.107745701988179,42.432583641892876,159,01493,Greenfield Union Elementary-Middle School,K8,"KG-Part,1,2,3,4,5,6,7,8",Detroit City School District,,,420 West 7 Mile Rd,DPS,48203,,Greenfield Union Elementary-Middle School,,,366,Detroit City District,727.217738,1.986934
-83.125030666658887,42.314277806950692,160,01574,Harms Elementary School,K8,"KG-Part,1,2,3,4,5",Detroit City School District,,,2400 Central St,DPS,48209,,Harms Elementary School,Southwest Detroit Neighborhoods,Southwest,511,Detroit City District,649.797685,1.27162
-83.20522324027057,42.364522934260997,161,00004,Henderson Academy,K8,"KG,1,2,3,4,5,6,7,8",Detroit City School District,,,16101 West Chicago St,DPS,48228,,Henderson Academy,,,891,Detroit City District,1703.452905,1.911844
-83.092637083215976,42.386700224828459,162,01240,Henry Ford Academy: School for Creative Studies-Elementary,K8,"KG,1,2,3,4,5,6,7,8",Henry Ford Academy: School for Creative Studies (PSAD),Grand Valley State University,"Creative Urban Education, Inc.",10225 3rd St,Charter,48202,,Henry Ford Academy: School for Creative Studies-Elementary,Northend Central,Northend Central,373,Charter,1568.276037,4.227159
-83.014835229267959,42.394716634855484,163,00005,"Holmes, A.L.  Elementary-Middle School",K8,"KG,1,2,3,4,5,6,7,8",Detroit City School District,,,8950 Crane St,DPS,48213,,A.L. Holmes Elementary-Middle School,,,560,Detroit City District,1216.572006,2.17245
-83.135309925493374,42.379361753375591,164,08637,Hope Academy,K8,"KG,1,2,3,4,5,6,7,8",Hope Academy,Eastern Michigan University,Self-managed,12121 Broadstreet Ave,Charter,48204,,Hope Academy,,,689,Charter,1493.78466,2.168047
-83.117124142968265,42.335298413521421,165,08722,Hope of Detroit Academy,K8,"KG,1,2,3,4,5,6,7,8",Hope of Detroit Academy,Ferris State University,Leona Group,4443 North Campbell St,Charter,48210,,Hope of Detroit Academy,Chadsey/Condon,Chadsey/Condon,495,Charter,1069.414704,2.160434
-82.983233040863254,42.369014008000285,166,01803,Hutchinson Elementary-Middle School,K8,"KG,1,2,3,4,5,6,7,8",Detroit City School District,,,2600 Garland,DPS,48214,,Hutchinson Elementary-Middle School,,,532,Detroit City District,1173.804778,2.2064
-83.165976821001891,42.434265371780882,167,02301,International Preparatory Academy - MacDowell Campus,K8,"KG,1,2,3,4,5,6,7,8",International Preparatory Academy-MacDowell Campus,Detroit City School District,SABIS,4201 West Outer Dr,DPS Charter,48221,,International Preparatory Academy - MacDowell Campus,,,451,Charter,900.48829,1.996648
-82.941198718774601,42.393853288849179,168,09992,J.E. Clark Preparatory Academy,K8,"KG,1,2,3,4,5,6,7,8",Detroit City School District,,,15755 Bremen St,DPS,48224,,J.E. Clark Preparatory Academy,,,804,Detroit City District,1032.199877,1.283831
-83.187918801383844,42.407846731523186,169,02036,John R. King Academic and Performing Arts Academy,K8,"KG,1,2,3,4,5,6,7,8",Detroit City School District,,,15850 Strathmoor St,DPS,48227,,John R. King Academic and Performing Arts Academy,,,994,Detroit City District,1774.627547,1.78534
-83.117133142091333,42.400984906128997,170,08718,Joy Preparatory Academy,K8,"KG,1,2",Joy Preparatory Academy,Ferris State University,Leona Group,1129 Oakman Blvd,Charter,48238,,Joy Preparatory Academy,Northend Central,Northend Central,136,Charter,421.572315,3.099796
-83.136119317733872,42.40142212625009,171,09318,Joy Preparatory Academy,K8,"3,4,5,6,7,8",Joy Preparatory Academy,Ferris State University,Leona Group,15055 Dexter Ave,Charter,48238,,Joy Preparatory Academy,Northend Central,Northend Central,226,Charter,477.130446,2.111197
-83.028801708360106,42.437587323630346,172,02377,Law Elementary School,K8,"KG,1,2,3,4,5,6,7,8",Education Achievement System-EAS,,,19411 Cliff St,EAA,48234,,Law Elementary School,Osborn,Osborn,508,EAA,800.058616,1.574919
-83.054361929442251,42.429139239888372,173,00367,Legacy Charter Academy,K8,"KG,1,2,3,4,5,6,7",Legacy Charter Academy,Grand Valley State University,National Heritage Academies,4900 E. Hildale Street,Charter,48234,,Legacy Charter Academy,,,699,Charter,1459.476638,2.087949
-83.177900351517152,42.414070041113305,174,00133,Lincoln-King Academy,K8,"KG,1,2,3,4,5,6,7,8",Washington-Parks Academy,Wayne RESA,Cornerstone Charter Schools,13436 Grove St,Charter,48235,,Lincoln-King Academy,,,614,Charter,1856.338242,3.023352
-82.983756136654605,42.445363015861375,175,04222,Trix Elementary,K8,"KG,1,2,3,4,5,6,7,8",Michigan Educational Choice Center,Education Achievement System-EAS,Performance Academies,13700 Bringard Dr,EAA Charter,48205,,Trix Elementary,Osborn,Osborn,390,Charter,497.593237,1.27588
-83.27082732777113,42.438666499259703,176,08641,Weston Preparatory Academy,K8,"KG-Part,1,2,3,4,5,6,7,8",Weston Preparatory Academy,Oakland University,Schoolhouse Services & Staffing,22930 Chippewa St,Charter,48219,,Weston Preparatory Academy,,,338,Charter,1219.793229,3.608856
-83.02504253921218,42.42665156593641,177,09914,Winans Academy Middle School,K8,"6,7,8",Marvin L. Winans Academy of Performing Arts,Saginaw Valley State University,Solid Rock,7616 East Nevada St,Charter,48234,,Winans Academy Middle School,Osborn,Osborn,373,Charter,2181.376687,5.848195
-83.037291302495461,42.336134786825355,178,08335,Woodward Academy,K8,"KG,1,2,3,4,5,6,7,8",Woodward Academy,Central Michigan University,Midwest Management Group Inc.,951 East Lafayette St,Charter,48207,,Woodward Academy,,,741,Charter,4992.247659,6.737176
-83.137152051063467,42.338230203075803,179,00260,Blanche Kelso Bruce Academy - Cecil Site,HS,"5,6,7,8,9,10,11,12",Blanche Kelso Bruce Academy,Wayne RESA,Self-managed,5690 Cecil Street,Charter,48210,1,Blanche Kelso Bruce Academy - Cecil Site,Chadsey/Condon,Chadsey/Condon,82,Charter,560.256336,6.916745
-83.024188181184357,42.389788348653035,180,00182,Blanche Kelso Bruce Academy - St. Thomas Site,HS,"5,6,7,8,9,10,11,12",Blanche Kelso Bruce Academy,Wayne RESA,Self-managed,8333 Townsend St,Charter,48213,1,Blanche Kelso Bruce Academy - St. Thomas Site,,,8,Charter,37.062058,4.632757
-82.982162849652482,42.392252494031304,181,09142,Blanche Kelso Bruce Academy-Connor,HS,"5,6,7,8,9,10,11,12",Blanche Kelso Bruce Academy,Wayne RESA,Evans Solutions,5555 Conner St,Charter,48213,1,Blanche Kelso Bruce Academy-Connor,,,126,Charter,822.597306,6.52855
-83.010771770982899,42.359711569553234,182,09618,Blanche Kelso Bruce Academy-DePaul,HS,"5,6,7,8,9,10,11,12",Blanche Kelso Bruce Academy,Wayne RESA,Evans Solutions,609 East Grand Blvd,Charter,48207,1,Blanche Kelso Bruce Academy-DePaul,,,16,Charter,132.754959,8.850331
-83.040602289955046,42.337057641787979,183,09707,Blanche Kelso Bruce Academy-St. Antoine,HS,"5,6,7,8,9,10,11,12",Blanche Kelso Bruce Academy,Wayne RESA,Evans Solutions,1326 Saint Antoine St,Charter,48226,1,Blanche Kelso Bruce Academy-St. Antoine,,,117,Charter,1354.643263,11.578148
-83.186751160331212,42.363650592585181,184,02461,Breithaupt Career and Technical Center,HS,"9,10,11,12",Detroit City School District,,,9300 Hubbell St,DPS,48228,1,Breithaupt Career and Technical Center,,,12,Technical,60.991286,5.082607
-83.063238234377337,42.359873444950168,185,01506,Capstone Academy Charter School (SDA) - North Campus,HS,"6,7,8,9,10,11,12",Capstone Academy Charter School (SDA),Detroit City School District,edtec central,5250 John R,DPS Charter,48202,1,Capstone Academy Charter School (SDA) - North Campus,,,23,Charter,34.294867,1.558858
-83.055018428315805,42.347849507750432,186,01488,Capstone Academy Charter School (SDA) - South Campus,HS,"6,7,8,9,10,11,12",Capstone Academy Charter School (SDA),Detroit City School District,edtec central,3500 John R Street,DPS Charter,48201,1,Capstone Academy Charter School (SDA) - South Campus,,,80,Charter,648.361863,8.420284
-83.089624349331089,42.340385131361117,187,07097,Catherine Ferguson Academy,HS,"7,8,9,10,11,12",Blanche Kelso Bruce Academy,Wayne RESA,Evans Solutions,2750 Selden St,Charter,48208,1,Catherine Ferguson Academy,,,118,Charter,984.50883,8.343295
-83.089273613486299,42.336104357785231,188,09649,Covenant House Academy Central,HS,"9,10,11,12",Covenant House Academy Central,Grand Valley State University,Youth Visions Solutions,2959 Martin Luther King Jr Blvd,Charter,48208,1,Covenant House Academy Central,,,411,Charter,2760.583448,6.716748
-83.00763313627678,42.363461742707052,189,09621,Covenant House Academy East,HS,"9,10,11,12",Covenant House Academy East,Grand Valley State University,Youth Visions Solutions,7600 Goethe St,Charter,48214,1,Covenant House Academy East,,,292,Charter,1332.851907,4.564561
-83.102905855682806,42.316421640938827,190,09624,Covenant House Academy Southwest,HS,"9,10,11,12",Covenant House Academy Southwest,Grand Valley State University,Youth Visions Solutions,5668 Baker St,Charter,48209,1,Covenant House Academy Southwest,Southwest Detroit Neighborhoods,Southwest,233,Charter,1229.764808,5.277961
-82.993585723307447,42.378903105057198,191,08925,Detroit Lions Alternative Education,K8,"6,7,8",Detroit City School District,,,10101 East Canfield St,DPS,48214,1,Detroit Lions Alternative Education,,,123,Detroit City District,659.006064,5.357773
-82.952790980711725,42.370830640823215,192,02479,Golightly Career and Technical  Center,HS,"9,10,11,12",Detroit City School District,,,900 Dickerson St,DPS,48215,1,Golightly Career and Technical  Center,,,49,Technical,213.475643,4.356646
-83.078724570327168,42.432691561524244,193,01608,Hazel Park Empowerment Eastside Alternative School,HS,"9,10,11,12","Hazel Park, School District of the City of",,,2328 E 7 Mile Rd,Hazel Park,48234,1,Hazel Park Empowerment Eastside Alternative School,,,15,Other District,85.208737,5.680582
-83.151048066053221,42.371546643041057,194,01609,Hazel Park Empowerment Impact Alternative School,HS,"9,10,11,12","Hazel Park, School District of the City of",,,4321 Oakman Blvd,Hazel Park,48204,1,Hazel Park Empowerment Impact Alternative School,,,39,Other District,159.902432,4.100062
-83.153251401976149,42.328451122994323,195,01620,Hazel Park Empowerment Ser Metro Alternative School,HS,"9,10,11,12","Hazel Park, School District of the City of",,,9215 Michigan Ave,Hazel Park,48210,1,Hazel Park Empowerment Ser Metro Alternative School,Chadsey/Condon,Chadsey/Condon,63,Other District,262.083596,4.160057
-83.205421091845722,42.36652842217282,196,01622,Hazel Park Empowerment West Alternative School,HS,"9,10,11,12","Hazel Park, School District of the City of",,,9600 Mettetal St,Hazel Park,48227,1,Hazel Park Empowerment West Alternative School,,,18,Other District,65.020111,3.612228
-83.192154610289521,42.416435257568153,197,09592,Jerry L White Center High School,HS,"9,10,11,12",Detroit City School District,,,14804 West Mcnichols Rd,DPS,48235,1,Jerry L White Center High School,,,219,Detroit City District,1264.47735,5.773869
-83.128520042359753,42.374028772891442,198,09594,Keidan Special Education School,K8,"KG,1,2,3,4,5,6,7,8",Detroit City School District,,,4441 Collingwood St,DPS,48204,1,Keidan Special Education School,,,151,Detroit City District,881.703735,5.839098
-82.929742835816896,42.406539279506397,199,09475,Kettering West Wing,HS,"9,10,11,12",Detroit City School District,,,6101 Van Dyke St,DPS,48213,1,Diann Banks-Williamson Educational Center,,,103,Detroit City District,468.125052,4.544903
-83.002046862621981,42.352682316548702,200,08951,Moses Field,K8,"KG,1,2,3,4,5,6,7,8",Detroit City School District,,,1100 Sheridan St,DPS,48214,1,Moses Field,,,108,Detroit City District,696.29991,6.447221
-83.102979287774716,42.358182717478464,201,01508,Northwestern South Wing,HS,"9,10,11,12",Detroit City School District,,,2200 W. Grand Blvd,DPS,48208,1,Northwestern South Wing,Northend Central,Northend Central,19,Detroit City District,156.986349,8.262439
-83.189681473449809,42.416983844403845,202,02465,Randolph Career and Technical Center,HS,"9,10,11,12",Detroit City School District,,,17101 Hubbell St,DPS,48235,1,Randolph Career and Technical Center,,,2,Technical,8.545129,4.272565
-82.998981661925782,42.430452253220707,203,09788,Turning Point Academy,K12,"1,2,3,4,5,6,7,8,9,10,11,12",Detroit City School District,,,12300 Linnhurst St,DPS,48205,1,Turning Point Academy,Osborn,Osborn,99,Detroit City District,777.180315,7.850306
-83.103085722996227,42.342843727136632,204,08929,West Side Academy Alt. Ed,HS,"9,10,11,12",Detroit City School District,,,4701 Mckinley,DPS,48208,1,West Side Academy Alt. Ed,Chadsey/Condon,Chadsey/Condon,714,Detroit City District,5032.287325,7.048021
-82.957675783431995,42.379460687219094,205,01465,Wolverine Academy (SDA) - Lenox Site,HS,"6,7,8,9,10,11,12",Wolverine Academy (SDA),Saginaw Valley State University,EMAN,2629 Lenox,Charter,48215,1,Wolverine Academy (SDA) - Lenox Site,,,43,Charter,41.240127,0.959073
-83.006259183491693,42.37079756216955,206,02027,Cesar Chavez Academy - Elementary East,K8,"KG,1,2,3,4,5",Cesar Chavez Academy,Saginaw Valley State University,,4130 Maxwell St                                             ,Charter,48214,,Cesar Chavez Academy - Elementary East,,,58,Charter,123.599065,2.131018
-83.23304122001322,42.331254371931969,207,02222,Detroit Leadership Academy Middle/High,HS,"6,7,8,9",Detroit Leadership Academy,Central Michigan University,,5845 Auburn St                                              ,Charter,48228,,Detroit Leadership Academy Middle/High,Cody Rouge,Cody Rouge,218,Charter,1035.053713,4.747953
-83.119861543083019,42.33265731455981,208,09155,Hope of Detroit Academy Consortium High School,HS,"9,10,11,12",Hope of Detroit Academy,Ferris State University,,4366 Military St                                            ,Charter,48210,,Hope of Detroit Academy Consortium High School,Chadsey/Condon,Chadsey/Condon,34,Charter,102.307701,3.00905
-83.259436321674173,42.415358968816236,209,09480,Old Redford Academy - Middle,K8,"6,7,8",Old Redford Academy,Central Michigan University,,17226 Redford St,Charter,48219,,Old Redford Academy - Middle,,,425,Charter,1393.733422,3.279373
